start=new Date('2023-01-08T00:00:00.000Z').valueOf();
sats=[{"OBJECT_NAME":"STARLINK-1687","MEAN_MOTION_DDOT":"0.0000000000000","TIME_SYSTEM":"UTC","PERIOD":"95.593","COUNTRY_CODE":"US","MEAN_MOTION":"15.06381066","ELEMENT_SET_NO":"999","GP_ID":"222400194","CENTER_NAME":"EARTH","SEMIMAJOR_AXIS":"6925.407","RA_OF_ASC_NODE":"309.9923","SITE":"AFETR","MEAN_ANOMALY":"283.3543","RCS_SIZE":"LARGE","OBJECT_TYPE":"PAYLOAD","DECAY_DATE":null,"NORAD_CAT_ID":"46541","LAUNCH_DATE":"2020-10-06","BSTAR":"0.00022802000000","INCLINATION":"53.0532","EPOCH":"2023-01-07T19:46:39.133056","PERIAPSIS":"546.364","TLE_LINE1":"1 46541U 20070K   23007.82406404  .00003115  00000-0  22802-3 0  9996","REV_AT_EPOCH":"12541","APOAPSIS":"548.179","REF_FRAME":"TEME","OBJECT_ID":"2020-070K","MEAN_ELEMENT_THEORY":"SGP4","EPHEMERIS_TYPE":"0","ARG_OF_PERICENTER":"76.7592","CLASSIFICATION_TYPE":"U","FILE":"3735385","TLE_LINE2":"2 46541  53.0532 309.9923 0001310  76.7592 283.3543 15.06381066125413","ECCENTRICITY":"0.00013100","MEAN_MOTION_DOT":"0.00003115"},{"MEAN_ELEMENT_THEORY":"SGP4","OBJECT_ID":"2020-070L","EPHEMERIS_TYPE":"0","EPOCH":"2023-01-07T21:24:51.263136","TLE_LINE1":"1 46542U 20070L   23007.89225999  .00000258  00000-0  36285-4 0  9998","PERIAPSIS":"545.370","REV_AT_EPOCH":"12516","APOAPSIS":"549.170","REF_FRAME":"TEME","FILE":"3735386","TLE_LINE2":"2 46542  53.0541 329.6976 0002744  38.7367 321.3818 15.06381568125168","ECCENTRICITY":"0.00027440","MEAN_MOTION_DOT":"0.00000258","ARG_OF_PERICENTER":"38.7367","CLASSIFICATION_TYPE":"U","BSTAR":"0.00003628500000","INCLINATION":"53.0541","SITE":"AFETR","MEAN_ANOMALY":"321.3818","RCS_SIZE":"LARGE","GP_ID":"222399815","CENTER_NAME":"EARTH","SEMIMAJOR_AXIS":"6925.405","RA_OF_ASC_NODE":"329.6976","DECAY_DATE":null,"NORAD_CAT_ID":"46542","LAUNCH_DATE":"2020-10-06","OBJECT_TYPE":"PAYLOAD","OBJECT_NAME":"STARLINK-1692","MEAN_MOTION":"15.06381568","ELEMENT_SET_NO":"999","MEAN_MOTION_DDOT":"0.0000000000000","TIME_SYSTEM":"UTC","PERIOD":"95.593","COUNTRY_CODE":"US"},{"ELEMENT_SET_NO":"999","MEAN_MOTION":"15.06397399","COUNTRY_CODE":"US","PERIOD":"95.592","TIME_SYSTEM":"UTC","MEAN_MOTION_DDOT":"0.0000000000000","OBJECT_NAME":"STARLINK-1693","NORAD_CAT_ID":"46543","LAUNCH_DATE":"2020-10-06","DECAY_DATE":null,"OBJECT_TYPE":"PAYLOAD","RCS_SIZE":"LARGE","MEAN_ANOMALY":"295.8494","SITE":"AFETR","SEMIMAJOR_AXIS":"6925.357","RA_OF_ASC_NODE":"329.7574","CENTER_NAME":"EARTH","GP_ID":"222400211","INCLINATION":"53.0535","BSTAR":"0.00069329000000","ECCENTRICITY":"0.00023140","MEAN_MOTION_DOT":"0.00010059","TLE_LINE2":"2 46543  53.0535 329.7574 0002314  64.2734 295.8494 15.06397399125166","FILE":"3735386","CLASSIFICATION_TYPE":"U","ARG_OF_PERICENTER":"64.2734","EPHEMERIS_TYPE":"0","MEAN_ELEMENT_THEORY":"SGP4","OBJECT_ID":"2020-070M","APOAPSIS":"548.824","REV_AT_EPOCH":"12516","REF_FRAME":"TEME","TLE_LINE1":"1 46543U 20070M   23007.87750740  .00010059  00000-0  69329-3 0  9998","PERIAPSIS":"545.619","EPOCH":"2023-01-07T21:03:36.639360"},{"EPHEMERIS_TYPE":"0","MEAN_ELEMENT_THEORY":"SGP4","OBJECT_ID":"2020-070N","APOAPSIS":"548.446","REV_AT_EPOCH":"12536","REF_FRAME":"TEME","TLE_LINE1":"1 46544U 20070N   23007.87335637  .00007342  00000-0  51133-3 0  9998","PERIAPSIS":"546.001","EPOCH":"2023-01-07T20:57:37.990368","MEAN_MOTION_DOT":"0.00007342","ECCENTRICITY":"0.00017650","TLE_LINE2":"2 46544  53.0555 314.7815 0001765 334.1588  25.9313 15.06396738125366","FILE":"3735387","CLASSIFICATION_TYPE":"U","ARG_OF_PERICENTER":"334.1588","BSTAR":"0.00051133000000","INCLINATION":"53.0555","RCS_SIZE":"LARGE","SITE":"AFETR","MEAN_ANOMALY":"25.9313","SEMIMAJOR_AXIS":"6925.359","RA_OF_ASC_NODE":"314.7815","CENTER_NAME":"EARTH","GP_ID":"222399826","NORAD_CAT_ID":"46544","LAUNCH_DATE":"2020-10-06","DECAY_DATE":null,"OBJECT_TYPE":"PAYLOAD","OBJECT_NAME":"STARLINK-1694","ELEMENT_SET_NO":"999","MEAN_MOTION":"15.06396738","COUNTRY_CODE":"US","PERIOD":"95.592","TIME_SYSTEM":"UTC","MEAN_MOTION_DDOT":"0.0000000000000"},{"PERIOD":"95.593","TIME_SYSTEM":"UTC","MEAN_MOTION_DDOT":"0.0000000000000","COUNTRY_CODE":"US","ELEMENT_SET_NO":"999","MEAN_MOTION":"15.06386025","OBJECT_NAME":"STARLINK-1696","OBJECT_TYPE":"PAYLOAD","NORAD_CAT_ID":"46545","LAUNCH_DATE":"2020-10-06","DECAY_DATE":null,"GP_ID":"222400227","CENTER_NAME":"EARTH","RA_OF_ASC_NODE":"329.5851","SEMIMAJOR_AXIS":"6925.391","SITE":"AFETR","MEAN_ANOMALY":"282.7491","RCS_SIZE":"LARGE","INCLINATION":"53.0538","BSTAR":"0.00018157000000","ARG_OF_PERICENTER":"77.3695","CLASSIFICATION_TYPE":"U","TLE_LINE2":"2 46545  53.0538 329.5851 0001760  77.3695 282.7491 15.06386025125157","FILE":"3735387","ECCENTRICITY":"0.00017600","MEAN_MOTION_DOT":"0.00002423","EPOCH":"2023-01-07T21:56:41.223264","REV_AT_EPOCH":"12515","APOAPSIS":"548.475","REF_FRAME":"TEME","TLE_LINE1":"1 46545U 20070P   23007.91436601  .00002423  00000-0  18157-3 0  9991","PERIAPSIS":"546.038","OBJECT_ID":"2020-070P","MEAN_ELEMENT_THEORY":"SGP4","EPHEMERIS_TYPE":"0"},{"INCLINATION":"53.0527","BSTAR":"-0.00005860700000","ARG_OF_PERICENTER":"64.2401","CLASSIFICATION_TYPE":"U","FILE":"3735488","TLE_LINE2":"2 46546  53.0527 329.6642 0001853  64.2401 295.8779 15.06397088125142","MEAN_MOTION_DOT":"-0.00001154","ECCENTRICITY":"0.00018530","EPOCH":"2023-01-07T21:35:27.006432","PERIAPSIS":"545.939","TLE_LINE1":"1 46546U 20070Q   23007.89961813 -.00001154  00000-0 -58607-4 0  9994","REF_FRAME":"TEME","APOAPSIS":"548.506","REV_AT_EPOCH":"12514","OBJECT_ID":"2020-070Q","MEAN_ELEMENT_THEORY":"SGP4","EPHEMERIS_TYPE":"0","MEAN_MOTION_DDOT":"0.0000000000000","TIME_SYSTEM":"UTC","PERIOD":"95.592","COUNTRY_CODE":"US","MEAN_MOTION":"15.06397088","ELEMENT_SET_NO":"999","OBJECT_NAME":"STARLINK-1697","OBJECT_TYPE":"PAYLOAD","DECAY_DATE":null,"LAUNCH_DATE":"2020-10-06","NORAD_CAT_ID":"46546","GP_ID":"222421803","CENTER_NAME":"EARTH","SEMIMAJOR_AXIS":"6925.357","RA_OF_ASC_NODE":"329.6642","SITE":"AFETR","MEAN_ANOMALY":"295.8779","RCS_SIZE":"LARGE"},{"OBJECT_TYPE":"PAYLOAD","LAUNCH_DATE":"2020-10-06","NORAD_CAT_ID":"46547","DECAY_DATE":null,"GP_ID":"222420553","CENTER_NAME":"EARTH","SEMIMAJOR_AXIS":"6925.355","RA_OF_ASC_NODE":"331.0154","SITE":"AFETR","MEAN_ANOMALY":"319.5735","RCS_SIZE":"LARGE","PERIOD":"95.592","TIME_SYSTEM":"UTC","MEAN_MOTION_DDOT":"0.0000000000000","COUNTRY_CODE":"US","ELEMENT_SET_NO":"999","MEAN_MOTION":"15.06397972","OBJECT_NAME":"STARLINK-1698","ARG_OF_PERICENTER":"40.5450","CLASSIFICATION_TYPE":"U","TLE_LINE2":"2 46547  53.0546 331.0154 0002637  40.5450 319.5735 15.06397972125105","FILE":"3735488","MEAN_MOTION_DOT":"0.00015599","ECCENTRICITY":"0.00026370","EPOCH":"2023-01-07T14:18:50.785632","REF_FRAME":"TEME","APOAPSIS":"549.046","REV_AT_EPOCH":"12510","PERIAPSIS":"545.394","TLE_LINE1":"1 46547U 20070R   23007.59642113  .00015599  00000-0  10638-2 0  9997","MEAN_ELEMENT_THEORY":"SGP4","OBJECT_ID":"2020-070R","EPHEMERIS_TYPE":"0","INCLINATION":"53.0546","BSTAR":"0.00106380000000"},{"ELEMENT_SET_NO":"999","MEAN_MOTION":"15.06388792","COUNTRY_CODE":"US","PERIOD":"95.593","TIME_SYSTEM":"UTC","MEAN_MOTION_DDOT":"0.0000000000000","OBJECT_NAME":"STARLINK-1699","LAUNCH_DATE":"2020-10-06","NORAD_CAT_ID":"46548","DECAY_DATE":null,"OBJECT_TYPE":"PAYLOAD","RCS_SIZE":"LARGE","SITE":"AFETR","MEAN_ANOMALY":"318.9028","RA_OF_ASC_NODE":"330.9697","SEMIMAJOR_AXIS":"6925.383","GP_ID":"222420303","CENTER_NAME":"EARTH","INCLINATION":"53.0559","BSTAR":"0.00048260000000","ECCENTRICITY":"0.00025310","MEAN_MOTION_DOT":"0.00006912","TLE_LINE2":"2 46548  53.0559 330.9697 0002531  41.2152 318.9028 15.06388792125108","FILE":"3735488","CLASSIFICATION_TYPE":"U","ARG_OF_PERICENTER":"41.2152","EPHEMERIS_TYPE":"0","MEAN_ELEMENT_THEORY":"SGP4","OBJECT_ID":"2020-070S","REV_AT_EPOCH":"12510","APOAPSIS":"549.001","REF_FRAME":"TEME","PERIAPSIS":"545.495","TLE_LINE1":"1 46548U 20070S   23007.60842716  .00006912  00000-0  48260-3 0  9993","EPOCH":"2023-01-07T14:36:08.106624"},{"INCLINATION":"53.0569","BSTAR":"0.00001857000000","MEAN_MOTION_DOT":"-0.00000005","ECCENTRICITY":"0.00024830","FILE":"3735488","TLE_LINE2":"2 46549  53.0569 329.6479 0002483  52.0933 308.0280 15.06386168125145","CLASSIFICATION_TYPE":"U","ARG_OF_PERICENTER":"52.0933","EPHEMERIS_TYPE":"0","MEAN_ELEMENT_THEORY":"SGP4","OBJECT_ID":"2020-070T","PERIAPSIS":"545.536","TLE_LINE1":"1 46549U 20070T   23007.90330607 -.00000005  00000-0  18570-4 0  9998","APOAPSIS":"548.976","REF_FRAME":"TEME","REV_AT_EPOCH":"12514","EPOCH":"2023-01-07T21:40:45.644448","MEAN_MOTION":"15.06386168","ELEMENT_SET_NO":"999","COUNTRY_CODE":"US","MEAN_MOTION_DDOT":"0.0000000000000","TIME_SYSTEM":"UTC","PERIOD":"95.593","OBJECT_NAME":"STARLINK-1700","DECAY_DATE":null,"LAUNCH_DATE":"2020-10-06","NORAD_CAT_ID":"46549","OBJECT_TYPE":"PAYLOAD","RCS_SIZE":"LARGE","MEAN_ANOMALY":"308.0280","SITE":"AFETR","RA_OF_ASC_NODE":"329.6479","SEMIMAJOR_AXIS":"6925.391","GP_ID":"222421053","CENTER_NAME":"EARTH"},{"SITE":"AFETR","MEAN_ANOMALY":"326.5823","RCS_SIZE":"LARGE","GP_ID":"222400241","CENTER_NAME":"EARTH","RA_OF_ASC_NODE":"329.7051","SEMIMAJOR_AXIS":"6925.373","NORAD_CAT_ID":"46550","LAUNCH_DATE":"2020-10-06","DECAY_DATE":null,"OBJECT_TYPE":"PAYLOAD","OBJECT_NAME":"STARLINK-1701","ELEMENT_SET_NO":"999","MEAN_MOTION":"15.06391893","PERIOD":"95.593","MEAN_MOTION_DDOT":"0.0000000000000","TIME_SYSTEM":"UTC","COUNTRY_CODE":"US","MEAN_ELEMENT_THEORY":"SGP4","OBJECT_ID":"2020-070U","EPHEMERIS_TYPE":"0","EPOCH":"2023-01-07T21:19:32.263968","REF_FRAME":"TEME","APOAPSIS":"549.137","REV_AT_EPOCH":"12516","PERIAPSIS":"545.339","TLE_LINE1":"1 46550U 20070U   23007.88856787  .00008003  00000-0  55565-3 0  9998","TLE_LINE2":"2 46550  53.0543 329.7051 0002742  33.5339 326.5823 15.06391893125169","FILE":"3735407","ECCENTRICITY":"0.00027420","MEAN_MOTION_DOT":"0.00008003","ARG_OF_PERICENTER":"33.5339","CLASSIFICATION_TYPE":"U","BSTAR":"0.00055565000000","INCLINATION":"53.0543"}];
